IRIDIUM 154             
1 43574U 18061F   26200.11581590  .00000018  00000+0 -49963-6 0  9995
2 43574  86.3936  43.4508 0002194  89.1021 271.0426 14.34217329417988
IRIDIUM 163             
1 43575U 18061G   26200.09678828  .00000053  00000+0  11886-4 0  9993
2 43575  86.3935  43.3729 0002125  88.0953 272.0486 14.34217670417951
IRIDIUM 156             
1 43576U 18061H   26200.28072091  .00000114  00000+0  33578-4 0  9995
2 43576  86.3936  43.3032 0002136  93.4767 266.6673 14.34218762417977
IRIDIUM 164             
1 43577U 18061J   26200.26169572 -.00000104  00000+0 -44366-4 0  9993
2 43577  86.3934  43.3523 0002234  88.6194 271.5258 14.34217317418015
IRIDIUM 159             
1 43578U 18061K   26200.09044479  .00000039  00000+0  67761-5 0  9993
2 43578  86.3935  43.3601 0002126  87.0538 273.0901 14.34217764417959
IRIDIUM 180             
1 43922U 19002A   26199.88063581 -.00000050  00000+0 -24858-4 0  9995
2 43922  86.3991 340.3494 0002045  91.2772 268.8658 14.34217545393536
IRIDIUM 176             
1 43923U 19002B   26199.90002469  .00000386  00000+0  57290-4 0  9993
2 43923  86.6117 340.2800 0002342  91.5413 268.6072 14.72251771403918
IRIDIUM 168             
1 43924U 19002C   26199.94406306  .00000125  00000+0  37747-4 0  9992
2 43924  86.3998 340.4005 0002192  90.7696 269.3751 14.34217598393523
IRIDIUM 173             
1 43925U 19002D   26199.93137667  .00000152  00000+0  47157-4 0  9999
2 43925  86.3994 340.2935 0002129  92.5844 267.5596 14.34218315393508
IRIDIUM 169             
1 43926U 19002E   26199.48273905  .00000066  00000+0  15176-4 0  9996
2 43926  86.4236  12.1048 0002097 102.7851 257.3582 14.38605573394722
IRIDIUM 172             
1 43927U 19002F   26200.13433972  .00000092  00000+0  25724-4 0  9993
2 43927  86.3996 340.2168 0002182  91.8543 268.2903 14.34218203393547
IRIDIUM 175             
1 43928U 19002G   26200.22981977  .00000172  00000+0  44744-4 0  9999
2 43928  86.4508 277.1277 0005472 107.6533 252.5266 14.43628529403600
IRIDIUM 171             
1 43929U 19002H   26199.83623789  .00000061  00000+0  14573-4 0  9992
2 43929  86.4006 340.6509 0002279  95.3979 264.7477 14.34217946393498
IRIDIUM 170             
1 43930U 19002J   26199.90619293  .00000385  00000+0  57208-4 0  9998
2 43930  86.6115 340.2795 0002223  88.8960 271.2512 14.72252377403924
IRIDIUM 167             
1 43931U 19002K   26199.89966397  .00000039  00000+0  69165-5 0  9999
2 43931  86.3997 340.3375 0002362  98.1583 261.9881 14.34217768393504
IRIDIUM 181             
1 56726U 23068S   26200.06730538  .00000142  00000+0  36201-4 0  9999
2 56726  86.4474  43.4579 0002380  84.1407 276.0065 14.43308329167030
IRIDIUM 177             
1 56727U 23068T   26200.03084263  .00000520  00000+0  65201-4 0  9996
2 56727  86.1988 313.6739 0002218  97.3887 262.7586 14.80027601171077
IRIDIUM 174             
1 56728U 23068U   26200.09763479  .00000358  00000+0  52849-4 0  9999
2 56728  86.6123 340.3500 0001930  91.0591 269.0847 14.72257399170710
IRIDIUM 178             
1 56729U 23068V   26200.22268254  .00000183  00000+0  20662-4 0  9990
2 56729  86.6538  11.9711 0002108  91.6690 268.4773 14.80022615171105
IRIDIUM 179             
1 56730U 23068W   26200.01450407  .00000110  00000+0  11014-4 0  9993
2 56730  86.6770  21.1308 0002373  93.7637 266.3856 14.80023631171072
